#dP2019  8 11  0  0  0.00000000      96 __u+U ITR00 FIT  IAC
## 2066      0.00000000   900.00000000 58706 0.0000000000000
+   97   C01C02C03C04C05C06C07C08C09C10C11C12C13C14C16E01E02
+        E03E04E05E07E08E09E11E12E13E14E15E18E19E21E24E25E26
+        E27E30E31E33E36G01G02G03G04G05G06G07G08G09G10G11G12
+        G13G14G15G16G17G18G19G20G21G22G23G24G25G26G27G28G29
+        G30G31G32J01J02J03R01R02R03R04R05R06R07R08R09R11R12
+        R13R14R15R16R17R18R19R20R21R22R23R24  0  0  0  0  0
++         0 13 13  0 13  8  9  8  8  8  8  8  8  8  8  5  5
++         5  5  5  4  5  5  5  5  5  5  5  5  5  4  5  6  5
++         5  5  5  5  5  3  3  3  4  4  3  3  3  3  3  3  3
++         3  3  3  3  3  3  3  3  3  3  3  3  3  3  3  3  3
++         3  3  3  9  8  8  6  5  5  5  5 11  5  5  5  5  5
++         6  5  5  6  5  5  6  6  5  5  5  6  0  0  0  0  0
%c M  cc GPS ccc cccc cccc cccc cccc ccccc ccccc ccccc ccccc
%c cc cc ccc ccc cccc cccc cccc cccc ccccc ccccc ccccc ccccc
%f  0.0000000  0.000000000  0.00000000000  0.000000000000000
%f  0.0000000  0.000000000  0.00000000000  0.000000000000000
%i    0    0    0    0      0      0      0      0         0
%i    0    0    0    0      0      0      0      0         0
/* INFORMATION & ANALYSIS CENTER (IAC) OF MCC   (RAPID DATA)
/* S/V CLOCKS ARE ALIGNED TO GPS & GLONASS TIME RESPECTIVELY
/* USING THE BROADCAST EPHEMERIS                            
/* PCV:IGS14_2062 OL/AL:FES2004  NONE     YN ORB:CoN CLK:CoN
*  2019 08 11 14 45  0.00000000
PC01      0.000000      0.000000      0.000000 999999.999999
PC02   4417.852013  41919.228061    -33.525562    -21.926046
PC03 -14722.770017  39521.848159   -643.717338   -224.099821
PC04      0.000000      0.000000      0.000000 999999.999999
PC05  21950.986800  36013.348053    126.002016   -205.212376
PC06 -16121.120778  22085.497643  32354.681875    482.499519
PC07 -20217.242687  37221.958411  -2436.448665    -59.210288
PC08  -5123.913700  29714.807046 -29250.877273    166.780535
PC09  -1218.858176  24670.387139  34413.723362   -117.572847
PC10 -10127.484038  38599.968885 -14076.232937    -71.569741
PC11  -8740.432862 -18522.413489  19033.240310    219.059603
PC12  19193.281345  -4969.379842  19659.670298   -226.031590
PC13   4654.536567  37043.876936 -19279.868934   -904.859262
PC14  12292.391064 -20504.883999 -14362.537256    512.601416
PC16 -14727.627284  21967.504400  32839.891757   -878.471139
PE01  11983.906200 -26829.828355  -3518.397116   -666.365021
PE02 -11956.374283  26855.760444   3467.431911     73.478437
PE03 -15531.980800  16586.256126  18982.693433   -198.369906
PE04  -6410.303892 -16127.007499 -23970.661457   -342.270220
PE05 -28546.601659   7317.690939   2816.197358   -458.432564
PE07  24797.273536   6194.140874  14929.691048   -244.196654
PE08   6632.987968  15910.307738  24068.459890   6309.389616
PE09 -24880.762002  -5861.859152 -14931.973417   6351.012285
PE11 -22629.392588 -16793.307037  -9051.292291   5628.170626
PE12 -12574.187547 -24757.089745  10232.470314   6253.434731
PE13  22664.022677  16814.590437   8931.733619    391.287062
PE14 -27236.318860   3577.664781 -11066.378827   -677.458450
PE15  12994.476574  24669.187501  -9933.939292    899.775323
PE18  26513.220027   7556.646178  -1813.361740   -772.363651
PE19  17431.572342 -15974.919798 -17799.744973     -4.611141
PE21  18218.822224 -12259.770791 -19840.228488   -548.909326
PE24 -13845.826069  -9410.054778  24406.372818   5929.576257
PE25 -18231.565211  12197.453587  19890.128400   1714.123287
PE26  19141.916932   -974.687317  22551.474290   4236.014823
PE27  13747.866957   9550.402422 -24405.227611    410.363219
PE30   1214.879305  25641.671218 -14741.094838   4637.388199
PE31  -1243.920276 -25683.821760  14661.560003   -467.260330
PE33   4313.261944 -18089.644682  23027.690712   -469.825160
PE36 -19073.629718    923.813231 -22618.188381    676.162164
PG01  16137.381570   2655.197766  20797.567346    -93.588094
PG02 -14922.687078 -20931.130162  -6353.949001   -280.573751
PG03  20062.387682  -8530.501482  15060.576599     -0.808098
PG04  15077.402855  13216.738263 -17984.193057     82.617321
PG05 -10907.525925 -11173.767874 -21603.033910     -0.546563
PG06  -5279.636996 -25168.869549   6616.665810    -21.681255
PG07  10062.965494 -13551.937340 -20112.050367    -83.026891
PG08  26183.329773   4724.228277  -1900.932050     -2.251547
PG09  18680.889329  -9365.569034 -16438.903673     -4.106105
PG10  -9234.259674  22799.049207   9806.953770    -10.416122
PG11  21142.345012   3583.232547  14967.296022   -537.895502
PG12 -19520.913952   4524.185102  17133.222393    215.099988
PG13 -20822.336755 -13046.145531 -10269.247033    -50.205500
PG14   8161.164660  16103.559708  19869.329352    -67.093222
PG15 -26575.170232  -2766.265444  -2011.157672   -294.854338
PG16   8894.198360  12050.577357 -22090.580053    -64.068363
PG17    706.377575 -14995.695226  22325.112039    104.963084
PG18  17591.839717  11375.467105  15890.586289     77.045059
PG19  -5968.837938 -15523.708812  20393.297712   -282.287554
PG20 -13939.582964  22497.774648   -371.378659    526.410121
PG21  -5063.651147  18664.202419 -17492.340409   -138.294677
PG22  18340.478740  -1298.565005  19363.809858   -742.558369
PG23  26095.396300   -831.885756  -5567.800512   -172.745370
PG24 -17719.154876  -4895.523474  19125.750640     -0.658722
PG25 -19228.554156  16710.203550   6828.338388     -6.737184
PG26   1136.397995  19669.520852 -17743.947885     12.586786
PG27  19406.376267  12158.120271 -13821.490379    -20.793089
PG28  10859.994703 -22018.456097  10863.510400    764.944728
PG29 -21395.968917   5481.670089 -14804.157362    127.736370
PG30   2725.133483 -22456.178253 -13730.268300    -17.480834
PG31   5777.019722  25252.788785   4649.222020     18.068969
PG32   -557.465195  15379.250327  21714.673494     15.104040
PJ01 -28983.804389  30511.594917   8671.998750   -260.768939
PJ02 -27841.153390  26065.014271  22801.063240     -2.258124
PJ03 -29972.652414  16324.714954 -20174.617228     -0.498095
PR01   8864.978686 -14183.441361 -19249.133578     48.018276
PR02 -11960.571084  -6036.305619 -21654.972470    382.770607
PR03 -23003.753729   4799.067556  -9826.107349     -0.192536
PR04 -20343.502761  13021.823959   8193.237661    317.284449
PR05  -6672.051669  13423.366539  20644.206237     33.640289
PR06  13016.284377   5394.856297  21260.847767 999999.999999
PR07  23187.756739  -5059.678184   9434.661326    -24.890580
PR08  20829.092056 -12742.782569  -7340.717870     16.247206
PR09   7495.558155  15302.822134 -18993.901755     84.841338
PR11   9232.922990 -18895.930687 -14375.788584    -75.652916
PR12   2226.245581 -25371.394264   1586.879365     51.811555
PR13  -6570.954611 -17133.252259  17701.459722    -27.004373
PR14 -11135.318740    795.389428  22953.503707     41.862204
PR15  -9430.497615  18248.667851  15153.479148    103.480058
PR16  -1699.338861  25333.410692  -1752.782913      6.268248
PR17 -20711.577743  -8604.717875 -12189.869867    251.050576
PR18 -11403.871559   4112.243417 -22427.648393      3.471488
PR19   3512.579225  14573.341632 -20641.867034    -47.595598
PR20  17956.046060  17325.050579  -5398.486892   -387.082887
PR21  20466.654751   8143.406276  12830.156123    -65.340812
PR22   9206.857133  -6015.388726  23022.855286    -32.586755
PR23  -8786.843779 -16505.813948  17338.350339    246.599051
PR24 -19135.624967 -16507.740265   3399.407559   -183.575663
EOF
